[
    {
        "Altitude(m)": 707309.4646626748,
        "Argument of Periapsis(deg)": 0.007973084830638947,
        "Eccentricity": 0.0,
        "Inclination(deg)": 45.0,
        "Latitude(deg)": 45.15424025715776,
        "Longitude(deg)": 9.325183716787375,
        "Mean Anomaly(deg)": 89.89145165323659,
        "RAAN(deg)": 19.992473640979256,
        "Satellite Name": "Constellation 1 93",
        "Satellite Number": 93,
        "Semi-Major Axis(m)": 7083131.272910544,
        "Time(s)": 133
    },
    {
        "Altitude(m)": 707309.4891048647,
        "Argument of Periapsis(deg)": 0.008033032836884352,
        "Eccentricity": 0.0,
        "Inclination(deg)": 45.0,
        "Latitude(deg)": 45.1543148815917,
        "Longitude(deg)": 9.40696875414361,
        "Mean Anomaly(deg)": 89.95215279348649,
        "RAAN(deg)": 19.99241705181369,
        "Satellite Name": "Constellation 1 93",
        "Satellite Number": 93,
        "Semi-Major Axis(m)": 7083131.272910544,
        "Time(s)": 134
    },
    {
        "Altitude(m)": 707309.498907918,
        "Argument of Periapsis(deg)": 0.008092980843129758,
        "Eccentricity": 0.0,
        "Inclination(deg)": 45.0,
        "Latitude(deg)": 45.15432493532877,
        "Longitude(deg)": 9.488753918433671,
        "Mean Anomaly(deg)": 90.01285393373638,
        "RAAN(deg)": 19.99236046264812,
        "Satellite Name": "Constellation 1 93",
        "Satellite Number": 93,
        "Semi-Major Axis(m)": 7083131.272910544,
        "Time(s)": 135
    },
    {
        "Altitude(m)": 707309.4940718128,
        "Argument of Periapsis(deg)": 0.008152928849375162,
        "Eccentricity": 0.0,
        "Inclination(deg)": 45.0,
        "Latitude(deg)": 45.15427041832449,
        "Longitude(deg)": 9.570539015796093,
        "Mean Anomaly(deg)": 90.0735550739863,
        "RAAN(deg)": 19.99230387348255,
        "Satellite Name": "Constellation 1 93",
        "Satellite Number": 93,
        "Semi-Major Axis(m)": 7083131.272910544,
        "Time(s)": 136
    },
    {
        "Altitude(m)": 707309.4745966173,
        "Argument of Periapsis(deg)": 0.008212876855620568,
        "Eccentricity": 0.0,
        "Inclination(deg)": 45.0,
        "Latitude(deg)": 45.15415133082289,
        "Longitude(deg)": 9.652323852370492,
        "Mean Anomaly(deg)": 90.13425621423619,
        "RAAN(deg)": 19.99224728431698,
        "Satellite Name": "Constellation 1 93",
        "Satellite Number": 93,
        "Semi-Major Axis(m)": 7083131.272910544,
        "Time(s)": 137
    },
    {
        "Altitude(m)": 707309.4404824723,
        "Argument of Periapsis(deg)": 0.008272824861865974,
        "Eccentricity": 0.0,
        "Inclination(deg)": 45.0,
        "Latitude(deg)": 45.15396767335687,
        "Longitude(deg)": 9.734108234301194,
        "Mean Anomaly(deg)": 90.19495735448608,
        "RAAN(deg)": 19.992190695151407,
        "Satellite Name": "Constellation 1 93",
        "Satellite Number": 93,
        "Semi-Major Axis(m)": 7083131.272910544,
        "Time(s)": 138
    },
    {
        "Altitude(m)": 707309.3917296182,
        "Argument of Periapsis(deg)": 0.00833277286811138,
        "Eccentricity": 0.0,
        "Inclination(deg)": 45.0,
        "Latitude(deg)": 45.15371944674776,
        "Longitude(deg)": 9.81589196774086,
        "Mean Anomaly(deg)": 90.255658494736,
        "RAAN(deg)": 19.99213410598584,
        "Satellite Name": "Constellation 1 93",
        "Satellite Number": 93,
        "Semi-Major Axis(m)": 7083131.272910544,
        "Time(s)": 139
    },
    {
        "Altitude(m)": 707309.3283383762,
        "Argument of Periapsis(deg)": 0.008392720874356788,
        "Eccentricity": 0.0,
        "Inclination(deg)": 45.0,
        "Latitude(deg)": 45.153406652105645,
        "Longitude(deg)": 9.897674858853682,
        "Mean Anomaly(deg)": 90.31635963498589,
        "RAAN(deg)": 19.99207751682027,
        "Satellite Name": "Constellation 1 93",
        "Satellite Number": 93,
        "Semi-Major Axis(m)": 7083131.272910544,
        "Time(s)": 140
    },
    {
        "Altitude(m)": 707309.2503091508,
        "Argument of Periapsis(deg)": 0.008452668880602192,
        "Eccentricity": 0.0,
        "Inclination(deg)": 45.0,
        "Latitude(deg)": 45.15302929082879,
        "Longitude(deg)": 9.979456545722101,
        "Mean Anomaly(deg)": 90.37706077523578,
        "RAAN(deg)": 19.9920209276547,
        "Satellite Name": "Constellation 1 93",
        "Satellite Number": 93,
        "Semi-Major Axis(m)": 7083131.272910544,
        "Time(s)": 141
    },
    {
        "Altitude(m)": 707309.1576424319,
        "Argument of Periapsis(deg)": 0.008512616886847598,
        "Eccentricity": 0.0,
        "Inclination(deg)": 45.0,
        "Latitude(deg)": 45.15258736460508,
        "Longitude(deg)": 10.061237170738295,
        "Mean Anomaly(deg)": 90.43776191548567,
        "RAAN(deg)": 19.991964338489133,
        "Satellite Name": "Constellation 1 93",
        "Satellite Number": 93,
        "Semi-Major Axis(m)": 7083131.272910544,
        "Time(s)": 142
    },
    {
        "Altitude(m)": 707309.0503388008,
        "Argument of Periapsis(deg)": 0.008572564893093004,
        "Eccentricity": 0.0,
        "Inclination(deg)": 45.0,
        "Latitude(deg)": 45.152080875409865,
        "Longitude(deg)": 10.143016372025567,
        "Mean Anomaly(deg)": 90.49846305573558,
        "RAAN(deg)": 19.991907749323563,
        "Satellite Name": "Constellation 1 93",
        "Satellite Number": 93,
        "Semi-Major Axis(m)": 7083131.272910544,
        "Time(s)": 143
    },
    {
        "Altitude(m)": 707308.9283989123,
        "Argument of Periapsis(deg)": 0.008632512899338408,
        "Eccentricity": 0.0,
        "Inclination(deg)": 45.0,
        "Latitude(deg)": 45.15150982550738,
        "Longitude(deg)": 10.224793955829815,
        "Mean Anomaly(deg)": 90.55916419598547,
        "RAAN(deg)": 19.991851160157992,
        "Satellite Name": "Constellation 1 93",
        "Satellite Number": 93,
        "Semi-Major Axis(m)": 7083131.272910544,
        "Time(s)": 144
    },
    {
        "Altitude(m)": 707308.7918235253,
        "Argument of Periapsis(deg)": 0.008692460905583814,
        "Eccentricity": 0.0,
        "Inclination(deg)": 45.0,
        "Latitude(deg)": 45.150874217450266,
        "Longitude(deg)": 10.306569728426162,
        "Mean Anomaly(deg)": 90.61986533623539,
        "RAAN(deg)": 19.991794570992425,
        "Satellite Name": "Constellation 1 93",
        "Satellite Number": 93,
        "Semi-Major Axis(m)": 7083131.272910544,
        "Time(s)": 145
    },
    {
        "Altitude(m)": 707308.6406134686,
        "Argument of Periapsis(deg)": 0.00875240891182922,
        "Eccentricity": 0.0,
        "Inclination(deg)": 45.0,
        "Latitude(deg)": 45.15017405407952,
        "Longitude(deg)": 10.388343496122319,
        "Mean Anomaly(deg)": 90.68056647648525,
        "RAAN(deg)": 19.99173798182685,
        "Satellite Name": "Constellation 1 93",
        "Satellite Number": 93,
        "Semi-Major Axis(m)": 7083131.272910544,
        "Time(s)": 146
    },
    {
        "Altitude(m)": 707308.4747696576,
        "Argument of Periapsis(deg)": 0.008812356918074627,
        "Eccentricity": 0.0,
        "Inclination(deg)": 45.0,
        "Latitude(deg)": 45.14940933852455,
        "Longitude(deg)": 10.470115065262211,
        "Mean Anomaly(deg)": 90.74126761673517,
        "RAAN(deg)": 19.991681392661285,
        "Satellite Name": "Constellation 1 93",
        "Satellite Number": 93,
        "Semi-Major Axis(m)": 7083131.272910544,
        "Time(s)": 147
    },
    {
        "Altitude(m)": 707308.2942931014,
        "Argument of Periapsis(deg)": 0.008872304924320031,
        "Eccentricity": 0.0,
        "Inclination(deg)": 45.0,
        "Latitude(deg)": 45.14858007420261,
        "Longitude(deg)": 10.55188407413218,
        "Mean Anomaly(deg)": 90.80196875698506,
        "RAAN(deg)": 19.991624803495714,
        "Satellite Name": "Constellation 1 93",
        "Satellite Number": 93,
        "Semi-Major Axis(m)": 7083131.272910544,
        "Time(s)": 148
    },
    {
        "Altitude(m)": 707308.0991848855,
        "Argument of Periapsis(deg)": 0.008932252930565437,
        "Eccentricity": 0.0,
        "Inclination(deg)": 45.0,
        "Latitude(deg)": 45.147686264820145,
        "Longitude(deg)": 10.633650665353047,
        "Mean Anomaly(deg)": 90.86266989723498,
        "RAAN(deg)": 19.991568214330144,
        "Satellite Name": "Constellation 1 93",
        "Satellite Number": 93,
        "Semi-Major Axis(m)": 7083131.272910544,
        "Time(s)": 149
    },
    {
        "Altitude(m)": 707307.8894461939,
        "Argument of Periapsis(deg)": 0.008992200936810843,
        "Eccentricity": 0.0,
        "Inclination(deg)": 45.0,
        "Latitude(deg)": 45.14672791437069,
        "Longitude(deg)": 10.715414477300772,
        "Mean Anomaly(deg)": 90.92337103748487,
        "RAAN(deg)": 19.991511625164577,
        "Satellite Name": "Constellation 1 93",
        "Satellite Number": 93,
        "Semi-Major Axis(m)": 7083131.272910544,
        "Time(s)": 150
    },
    {
        "Altitude(m)": 707307.6650782824,
        "Argument of Periapsis(deg)": 0.009052148943056249,
        "Eccentricity": 0.0,
        "Inclination(deg)": 45.0,
        "Latitude(deg)": 45.14570502713617,
        "Longitude(deg)": 10.797175316498652,
        "Mean Anomaly(deg)": 90.98407217773477,
        "RAAN(deg)": 19.991455035999007,
        "Satellite Name": "Constellation 1 93",
        "Satellite Number": 93,
        "Semi-Major Axis(m)": 7083131.272910544,
        "Time(s)": 151
    }
]